{"fetched_at":"2026-07-08T17:59:25.198Z","source":"https://celestrak.org/NORAD/elements/gp.php?GROUP=oneweb&FORMAT=JSON","constellation":"oneweb","records":[{"OBJECT_NAME":"ONEWEB-0044","OBJECT_ID":"2020-008V","EPOCH":"2026-07-08T07:21:57.617568","CLASSIFICATION_TYPE":"U","MEAN_MOTION":13.10377522,"ECCENTRICITY":0.0001787,"INCLINATION":87.8827,"RA_OF_ASC_NODE":32.0599,"ARG_OF_PERICENTER":81.3722,"MEAN_ANOMALY":278.7607,"EPHEMERIS_TYPE":0,"NORAD_CAT_ID":45150,"ELEMENT_SET_NO":999,"REV_AT_EPOCH":31124,"BSTAR":0.00050209,"MEAN_MOTION_DOT":0.00000188,"MEAN_MOTION_DDOT":0},{"OBJECT_NAME":"ONEWEB-0045","OBJECT_ID":"2020-008W","EPOCH":"2026-07-08T05:19:02.911008","CLASSIFICATION_TYPE":"U","MEAN_MOTION":13.11414888,"ECCENTRICITY":0.0001714,"INCLINATION":87.8887,"RA_OF_ASC_NODE":16.8726,"ARG_OF_PERICENTER":89.1,"MEAN_ANOMALY":271.0324,"EPHEMERIS_TYPE":0,"NORAD_CAT_ID":45151,"ELEMENT_SET_NO":999,"REV_AT_EPOCH":31316,"BSTAR":0.00044791,"MEAN_MOTION_DOT":0.00000171,"MEAN_MOTION_DDOT":0},{"OBJECT_NAME":"ONEWEB-0047","OBJECT_ID":"2020-008X","EPOCH":"2026-07-08T12:41:47.760000","CLASSIFICATION_TYPE":"U","MEAN_MOTION":13.10375086,"ECCENTRICITY":0.0001823,"INCLINATION":87.8828,"RA_OF_ASC_NODE":32.015,"ARG_OF_PERICENTER":93.0347,"MEAN_ANOMALY":267.0989,"EPHEMERIS_TYPE":0,"NORAD_CAT_ID":45152,"ELEMENT_SET_NO":999,"REV_AT_EPOCH":31099,"BSTAR":-0.00061096,"MEAN_MOTION_DOT":-0.00000201,"MEAN_MOTION_DDOT":0},{"OBJECT_NAME":"ONEWEB-0048","OBJECT_ID":"2020-008Y","EPOCH":"2026-07-08T07:04:48.508896","CLASSIFICATION_TYPE":"U","MEAN_MOTION":13.10364785,"ECCENTRICITY":0.0001833,"INCLINATION":87.8823,"RA_OF_ASC_NODE":32.0812,"ARG_OF_PERICENTER":88.6099,"MEAN_ANOMALY":271.5238,"EPHEMERIS_TYPE":0,"NORAD_CAT_ID":45153,"ELEMENT_SET_NO":999,"REV_AT_EPOCH":31057,"BSTAR":-0.0040226,"MEAN_MOTION_DOT":-0.00001391,"MEAN_MOTION_DDOT":0},{"OBJECT_NAME":"ONEWEB-0049","OBJECT_ID":"2020-008Z","EPOCH":"2026-07-08T12:39:20.467008","CLASSIFICATION_TYPE":"U","MEAN_MOTION":13.10374223,"ECCENTRICITY":0.0002019,"INCLINATION":87.8819,"RA_OF_ASC_NODE":32.024,"ARG_OF_PERICENTER":75.5009,"MEAN_ANOMALY":284.6342,"EPHEMERIS_TYPE":0,"NORAD_CAT_ID":45154,"ELEMENT_SET_NO":999,"REV_AT_EPOCH":31082,"BSTAR":-0.00071913,"MEAN_MOTION_DOT":-0.00000238,"MEAN_MOTION_DDOT":0},{"OBJECT_NAME":"ONEWEB-0051","OBJECT_ID":"2020-008AA","EPOCH":"2026-07-08T05:16:37.028928","CLASSIFICATION_TYPE":"U","MEAN_MOTION":13.11415913,"ECCENTRICITY":0.000185,"INCLINATION":87.8879,"RA_OF_ASC_NODE":16.8789,"ARG_OF_PERICENTER":89.3363,"MEAN_ANOMALY":270.7977,"EPHEMERIS_TYPE":0,"NORAD_CAT_ID":45155,"ELEMENT_SET_NO":999,"REV_AT_EPOCH":31384,"BSTAR":0.00047553,"MEAN_MOTION_DOT":0.00000181,"MEAN_MOTION_DDOT":0},{"OBJECT_NAME":"ONEWEB-0052","OBJECT_ID":"2020-008AB","EPOCH":"2026-07-08T07:39:16.396128","CLASSIFICATION_TYPE":"U","MEAN_MOTION":13.10375676,"ECCENTRICITY":0.0001989,"INCLINATION":87.8821,"RA_OF_ASC_NODE":32.0525,"ARG_OF_PERICENTER":75.0919,"MEAN_ANOMALY":285.0429,"EPHEMERIS_TYPE":0,"NORAD_CAT_ID":45156,"ELEMENT_SET_NO":999,"REV_AT_EPOCH":31070,"BSTAR":0.0016344,"MEAN_MOTION_DOT":0.00000583,"MEAN_MOTION_DDOT":0},{"OBJECT_NAME":"ONEWEB-0053","OBJECT_ID":"2020-008AC","EPOCH":"2026-07-08T06:35:28.062240","CLASSIFICATION_TYPE":"U","MEAN_MOTION":13.10369866,"ECCENTRICITY":0.0001632,"INCLINATION":87.8813,"RA_OF_ASC_NODE":32.0813,"ARG_OF_PERICENTER":71.9842,"MEAN_ANOMALY":288.1463,"EPHEMERIS_TYPE":0,"NORAD_CAT_ID":45157,"ELEMENT_SET_NO":999,"REV_AT_EPOCH":31067,"BSTAR":-0.0011893,"MEAN_MOTION_DOT":-0.00000402,"MEAN_MOTION_DDOT":0},{"OBJECT_NAME":"ONEWEB-0054","OBJECT_ID":"2020-008AD","EPOCH":"2026-07-08T07:26:50.662176","CLASSIFICATION_TYPE":"U","MEAN_MOTION":13.1037736,"ECCENTRICITY":0.000194,"INCLINATION":87.8825,"RA_OF_ASC_NODE":32.0594,"ARG_OF_PERICENTER":84.7271,"MEAN_ANOMALY":275.4077,"EPHEMERIS_TYPE":0,"NORAD_CAT_ID":45158,"ELEMENT_SET_NO":999,"REV_AT_EPOCH":31079,"BSTAR":0.0009425,"MEAN_MOTION_DOT":0.00000342,"MEAN_MOTION_DDOT":0},{"OBJECT_NAME":"ONEWEB-0056","OBJECT_ID":"2020-008AE","EPOCH":"2026-07-08T12:14:54.142368","CLASSIFICATION_TYPE":"U","MEAN_MOTION":13.10371174,"ECCENTRICITY":0.0002089,"INCLINATION":87.8825,"RA_OF_ASC_NODE":32.0129,"ARG_OF_PERICENTER":85.3916,"MEAN_ANOMALY":274.7449,"EPHEMERIS_TYPE":0,"NORAD_CAT_ID":45159,"ELEMENT_SET_NO":999,"REV_AT_EPOCH":31097,"BSTAR":-0.0017317,"MEAN_MOTION_DOT":-0.00000592,"MEAN_MOTION_DDOT":0},{"OBJECT_NAME":"ONEWEB-0057","OBJECT_ID":"2020-008AF","EPOCH":"2026-07-08T12:39:45.109152","CLASSIFICATION_TYPE":"U","MEAN_MOTION":13.10375137,"ECCENTRICITY":0.0001739,"INCLINATION":87.8825,"RA_OF_ASC_NODE":32.0213,"ARG_OF_PERICENTER":69.1068,"MEAN_ANOMALY":291.0246,"EPHEMERIS_TYPE":0,"NORAD_CAT_ID":45160,"ELEMENT_SET_NO":999,"REV_AT_EPOCH":31114,"BSTAR":-0.00086172,"MEAN_MOTION_DOT":-0.00000288,"MEAN_MOTION_DDOT":0},{"OBJECT_NAME":"ONEWEB-0058","OBJECT_ID":"2020-008AG","EPOCH":"2026-07-08T12:20:43.606176","CLASSIFICATION_TYPE":"U","MEAN_MOTION":13.10374651,"ECCENTRICITY":0.0001769,"INCLINATION":87.8816,"RA_OF_ASC_NODE":32.0285,"ARG_OF_PERICENTER":94.1437,"MEAN_ANOMALY":265.9893,"EPHEMERIS_TYPE":0,"NORAD_CAT_ID":45161,"ELEMENT_SET_NO":999,"REV_AT_EPOCH":31121,"BSTAR":-0.0017118,"MEAN_MOTION_DOT":-0.00000585,"MEAN_MOTION_DDOT":0},{"OBJECT_NAME":"ONEWEB-0059","OBJECT_ID":"2020-008AH","EPOCH":"2026-07-08T12:15:19.911168","CLASSIFICATION_TYPE":"U","MEAN_MOTION":13.10369916,"ECCENTRICITY":0.0001576,"INCLINATION":87.8816,"RA_OF_ASC_NODE":32.0286,"ARG_OF_PERICENTER":82.7002,"MEAN_ANOMALY":277.4305,"EPHEMERIS_TYPE":0,"NORAD_CAT_ID":45162,"ELEMENT_SET_NO":999,"REV_AT_EPOCH":31111,"BSTAR":-0.001776,"MEAN_MOTION_DOT":-0.00000607,"MEAN_MOTION_DDOT":0},{"OBJECT_NAME":"ONEWEB-0062","OBJECT_ID":"2020-008AJ","EPOCH":"2026-07-08T07:19:16.911840","CLASSIFICATION_TYPE":"U","MEAN_MOTION":13.10377031,"ECCENTRICITY":0.0001983,"INCLINATION":87.8827,"RA_OF_ASC_NODE":32.0582,"ARG_OF_PERICENTER":95.111,"MEAN_ANOMALY":265.0243,"EPHEMERIS_TYPE":0,"NORAD_CAT_ID":45163,"ELEMENT_SET_NO":999,"REV_AT_EPOCH":31095,"BSTAR":0.00026725,"MEAN_MOTION_DOT":0.00000106,"MEAN_MOTION_DDOT":0},{"OBJECT_NAME":"ONEWEB-0065","OBJECT_ID":"2020-008AK","EPOCH":"2026-07-08T11:48:03.885696","CLASSIFICATION_TYPE":"U","MEAN_MOTION":13.10371769,"ECCENTRICITY":0.0001924,"INCLINATION":87.8813,"RA_OF_ASC_NODE":32.0293,"ARG_OF_PERICENTER":79.1092,"MEAN_ANOMALY":281.0252,"EPHEMERIS_TYPE":0,"NORAD_CAT_ID":45164,"ELEMENT_SET_NO":999,"REV_AT_EPOCH":31067,"BSTAR":0.00024957,"MEAN_MOTION_DOT":0.000001,"MEAN_MOTION_DDOT":0},{"OBJECT_NAME":"ONEWEB-0066","OBJECT_ID":"2020-020A","EPOCH":"2026-07-08T06:44:30.865920","CLASSIFICATION_TYPE":"U","MEAN_MOTION":13.11420214,"ECCENTRICITY":0.0001698,"INCLINATION":87.8877,"RA_OF_ASC_NODE":16.87,"ARG_OF_PERICENTER":92.8319,"MEAN_ANOMALY":267.3004,"EPHEMERIS_TYPE":0,"NORAD_CAT_ID":45424,"ELEMENT_SET_NO":999,"REV_AT_EPOCH":30544,"BSTAR":0.001584,"MEAN_MOTION_DOT":0.00000574,"MEAN_MOTION_DDOT":0},{"OBJECT_NAME":"ONEWEB-0067","OBJECT_ID":"2020-020B","EPOCH":"2026-07-08T11:18:35.244000","CLASSIFICATION_TYPE":"U","MEAN_MOTION":13.11425355,"ECCENTRICITY":0.0001799,"INCLINATION":87.8898,"RA_OF_ASC_NODE":16.7584,"ARG_OF_PERICENTER":83.4713,"MEAN_ANOMALY":276.6619,"EPHEMERIS_TYPE":0,"NORAD_CAT_ID":45425,"ELEMENT_SET_NO":999,"REV_AT_EPOCH":30552,"BSTAR":-0.0013846,"MEAN_MOTION_DOT":-0.00000478,"MEAN_MOTION_DDOT":0},{"OBJECT_NAME":"ONEWEB-0080","OBJECT_ID":"2020-020C","EPOCH":"2026-07-08T11:18:08.598240","CLASSIFICATION_TYPE":"U","MEAN_MOTION":13.1141587,"ECCENTRICITY":0.0001989,"INCLINATION":87.8891,"RA_OF_ASC_NODE":16.8311,"ARG_OF_PERICENTER":98.1642,"MEAN_ANOMALY":261.9712,"EPHEMERIS_TYPE":0,"NORAD_CAT_ID":45426,"ELEMENT_SET_NO":999,"REV_AT_EPOCH":30549,"BSTAR":-0.0015419,"MEAN_MOTION_DOT":-0.00000534,"MEAN_MOTION_DDOT":0},{"OBJECT_NAME":"ONEWEB-0090","OBJECT_ID":"2020-020D","EPOCH":"2026-07-08T06:30:03.707136","CLASSIFICATION_TYPE":"U","MEAN_MOTION":13.11417787,"ECCENTRICITY":0.0001907,"INCLINATION":87.889,"RA_OF_ASC_NODE":16.8751,"ARG_OF_PERICENTER":90.8686,"MEAN_ANOMALY":269.2661,"EPHEMERIS_TYPE":0,"NORAD_CAT_ID":45427,"ELEMENT_SET_NO":999,"REV_AT_EPOCH":30543,"BSTAR":0.00098146,"MEAN_MOTION_DOT":0.00000361,"MEAN_MOTION_DDOT":0},{"OBJECT_NAME":"ONEWEB-0061","OBJECT_ID":"2020-020E","EPOCH":"2026-07-08T10:55:46.885728","CLASSIFICATION_TYPE":"U","MEAN_MOTION":13.1139256,"ECCENTRICITY":0.0001959,"INCLINATION":87.8889,"RA_OF_ASC_NODE":16.823,"ARG_OF_PERICENTER":101.3001,"MEAN_ANOMALY":258.8347,"EPHEMERIS_TYPE":0,"NORAD_CAT_ID":45428,"ELEMENT_SET_NO":999,"REV_AT_EPOCH":30541,"BSTAR":0.012655,"MEAN_MOTION_DOT":0.00004498,"MEAN_MOTION_DDOT":0},{"OBJECT_NAME":"ONEWEB-0081","OBJECT_ID":"2020-020F","EPOCH":"2026-07-08T12:18:59.736096","CLASSIFICATION_TYPE":"U","MEAN_MOTION":13.11416271,"ECCENTRICITY":0.000168,"INCLINATION":87.8884,"RA_OF_ASC_NODE":16.8207,"ARG_OF_PERICENTER":87.9699,"MEAN_ANOMALY":272.1621,"EPHEMERIS_TYPE":0,"NORAD_CAT_ID":45429,"ELEMENT_SET_NO":999,"REV_AT_EPOCH":30553,"BSTAR":0.0015322,"MEAN_MOTION_DOT":0.00000556,"MEAN_MOTION_DDOT":0},{"OBJECT_NAME":"ONEWEB-0069","OBJECT_ID":"2020-020G","EPOCH":"2026-07-08T12:21:38.814912","CLASSIFICATION_TYPE":"U","MEAN_MOTION":13.11417874,"ECCENTRICITY":0.0001632,"INCLINATION":87.8885,"RA_OF_ASC_NODE":16.8237,"ARG_OF_PERICENTER":89.3888,"MEAN_ANOMALY":270.7427,"EPHEMERIS_TYPE":0,"NORAD_CAT_ID":45430,"ELEMENT_SET_NO":999,"REV_AT_EPOCH":30546,"BSTAR":0.0014581,"MEAN_MOTION_DOT":0.00000529,"MEAN_MOTION_DDOT":0},{"OBJECT_NAME":"ONEWEB-0031","OBJECT_ID":"2020-020H","EPOCH":"2026-07-08T05:53:14.861760","CLASSIFICATION_TYPE":"U","MEAN_MOTION":13.1141731,"ECCENTRICITY":0.0001943,"INCLINATION":87.8877,"RA_OF_ASC_NODE":16.8808,"ARG_OF_PERICENTER":93.9646,"MEAN_ANOMALY":266.1704,"EPHEMERIS_TYPE":0,"NORAD_CAT_ID":45431,"ELEMENT_SET_NO":999,"REV_AT_EPOCH":30541,"BSTAR":-0.0014986,"MEAN_MOTION_DOT":-0.00000518,"MEAN_MOTION_DDOT":0}]}
